OBJECT_NAME,OBJECT_ID,EPOCH,MEAN_MOTION,ECCENTRICITY,INCLINATION,RA_OF_ASC_NODE,ARG_OF_PERICENTER,MEAN_ANOMALY,EPHEMERIS_TYPE,CLASSIFICATION_TYPE,NORAD_CAT_ID,ELEMENT_SET_NO,REV_AT_EPOCH,BSTAR,MEAN_MOTION_DOT,MEAN_MOTION_DDOT
STARLINK-3563,2022-022G,2026-02-07T13:35:25.840320,15.08823893,.0001356,53.2176,154.3509,83.2088,276.9059,0,U,51858,999,21847,-.52463E-4,-.1122E-4,0
STARLINK-3560,2022-022H,2026-02-07T13:59:19.092768,15.08834396,.0001236,53.2169,144.2837,88.3424,271.7709,0,U,51859,999,21861,.77516E-4,.946E-5,0
STARLINK-3559,2022-022J,2026-02-07T12:33:08.164224,15.08845326,.00011057,53.2151,144.5410,91.5113,268.6006,0,U,51860,999,21856,.11735561E-3,.1581E-4,0
STARLINK-3562,2022-022K,2026-02-07T12:11:56.630976,15.08838841,.0001315,53.2180,144.6186,89.4488,270.6655,0,U,51861,999,21847,.10664495E-3,.141E-4,0
STARLINK-3508,2022-022L,2026-02-07T14:03:14.231232,15.08838663,.0000825,53.2156,144.2650,61.0030,299.1045,0,U,51862,999,21862,.10897E-3,.1447E-4,0
STARLINK-3555,2022-022M,2026-02-07T13:36:44.104032,15.08815297,.0001519,53.2162,144.3486,99.1934,260.9230,0,U,51863,999,21856,-.71764E-3,-.11683E-3,0
STARLINK-3548,2022-022N,2026-02-07T13:42:00.525888,15.08848965,.0001387,53.2173,144.2521,92.9910,267.1241,0,U,51864,999,21861,.3919E-4,.336E-5,0
STARLINK-3503,2022-022P,2026-02-07T13:26:08.747808,15.08841162,.0001265,53.2161,144.3808,84.1821,275.9316,0,U,51865,999,21856,-.15046E-4,-.527E-5,0
STARLINK-3553,2022-022Q,2026-02-07T13:22:12.072288,15.08837973,.0001578,53.2179,144.2499,68.5807,291.5353,0,U,51866,999,21856,.24173E-3,.3561E-4,0
STARLINK-3590,2022-022R,2026-02-07T13:20:49.706304,15.08849983,.0001583,53.2176,144.3999,66.2148,293.9010,0,U,51867,999,21856,.66573E-4,.772E-5,0
STARLINK-3578,2022-022S,2026-02-07T13:31:25.720032,15.08847700,.0001272,53.2179,144.3644,79.3127,280.8008,0,U,51868,999,21856,-.14529E-4,-.519E-5,0
STARLINK-3588,2022-022T,2026-02-07T14:40:19.387200,15.08843338,.000147,53.2188,144.1489,74.4088,285.7066,0,U,51869,999,21857,.10921E-3,.1451E-4,0
STARLINK-3591,2022-022U,2026-02-07T13:15:32.389344,15.08842948,.000117,53.2170,144.4141,99.9592,260.1532,0,U,51870,999,21861,.40886E-4,.363E-5,0
STARLINK-3567,2022-022V,2026-02-07T14:35:01.342752,15.08844175,.0001156,53.2163,144.1635,92.1650,267.9474,0,U,51871,999,21868,.16525E-3,.2343E-4,0
STARLINK-3554,2022-022W,2026-02-07T11:34:51.402432,15.08839592,.00011917,53.2157,144.7282,90.2177,269.8952,0,U,51872,999,21855,.91922034E-4,.1175E-4,0
STARLINK-3582,2022-022X,2026-02-07T13:33:30.072096,15.15165533,.0002443,53.2136,141.9238,133.3677,226.7522,0,U,51873,999,21860,.2362E-2,.44805E-3,0
STARLINK-3574,2022-022Y,2026-02-07T14:29:43.243872,15.08846276,.0001033,53.2163,144.1792,68.0027,292.1074,0,U,51874,999,21856,.17036E-3,.2425E-4,0
STARLINK-3585,2022-022Z,2026-02-07T13:57:54.628128,15.08843308,.0001296,53.2174,144.1950,86.5958,273.5182,0,U,51875,999,21857,.49077E-5,-.21E-5,0
STARLINK-3583,2022-022AA,2026-02-07T14:24:26.461728,15.08828351,.0001446,53.2173,144.1959,54.3648,305.7478,0,U,51876,999,21857,-.50053E-4,-.1084E-4,0
STARLINK-3556,2022-022AB,2026-02-07T13:59:15.309312,15.08838494,.0001242,53.2162,134.2739,86.8950,273.2184,0,U,51877,999,21870,.26237E-3,.389E-4,0
STARLINK-3575,2022-022AC,2026-02-07T12:38:27.374208,15.08834849,.00008698,53.2158,144.5262,98.1698,261.9392,0,U,51878,999,21856,.11781726E-4,-.1E-5,0
STARLINK-3572,2022-022AD,2026-02-07T13:48:40.562208,15.08834956,.0000898,53.2170,134.3102,55.0735,305.0342,0,U,51879,999,21870,-.24426E-4,-.676E-5,0
STARLINK-3566,2022-022AE,2026-02-07T22:15:59.944032,15.08849187,.00011146,53.2168,142.4474,103.0111,257.1006,0,U,51880,999,21862,.34070517E-4,.255E-5,0
STARLINK-3504,2022-022AF,2026-02-07T13:38:03.726816,15.08836416,.0001423,53.2164,134.3442,95.2777,264.8377,0,U,51881,999,21875,-.12461E-3,-.227E-4,0
STARLINK-3570,2022-022AG,2026-02-07T12:19:57.555840,15.08837303,.00015999,53.2177,134.5947,81.9461,278.1712,0,U,51882,999,21874,.1007379E-3,.1315E-4,0
STARLINK-3576,2022-022AH,2026-02-07T13:53:59.614080,15.08839382,.0001666,53.2182,134.4762,70.0800,290.0371,0,U,51883,999,21869,.10146E-3,.1327E-4,0
STARLINK-3577,2022-022AJ,2026-02-07T13:43:22.770912,15.08821644,.0001492,53.2177,134.3266,92.9916,267.1247,0,U,51884,999,21878,.61839E-4,.696E-5,0
STARLINK-3584,2022-022AK,2026-02-07T11:46:46.528320,15.08843889,.00013605,53.2164,134.6918,95.1834,264.9313,0,U,51885,999,21868,.26154423E-3,.3877E-4,0
STARLINK-3565,2022-022AL,2026-02-07T11:57:23.728320,15.08828539,.0001537,53.2174,134.6595,86.5470,273.5698,0,U,51886,999,21869,-.23762353E-4,-.666E-5,0
STARLINK-3551,2022-022AM,2026-02-07T11:41:28.345632,15.08843397,.00013416,53.2170,134.7105,70.2585,289.8552,0,U,51887,999,21868,.8412815E-4,.1051E-4,0
STARLINK-3536,2022-022AN,2026-02-07T13:27:27.397728,15.08848829,.0001235,53.2166,134.3788,95.6342,264.4791,0,U,51888,999,21870,-.14165E-3,-.2542E-4,0
STARLINK-3547,2022-022AP,2026-02-07T13:00:57.360384,15.08856135,.0001252,53.2175,134.4606,91.3095,268.8040,0,U,51889,999,21869,-.14705E-3,-.2628E-4,0
STARLINK-3549,2022-022AR,2026-02-07T12:55:40.787328,15.08841242,.0001397,53.2176,134.4769,95.3028,264.8123,0,U,51891,999,21874,.47323E-4,.465E-5,0
STARLINK-3587,2022-022AS,2026-02-07T13:06:15.478272,15.08839499,.0001363,53.2173,134.4412,100.4546,259.6600,0,U,51892,999,21869,.15821E-3,.2231E-4,0
STARLINK-3579,2022-022AT,2026-02-07T12:45:04.601664,15.08838860,.0001395,53.2166,134.5067,82.8336,277.2815,0,U,51893,999,21875,.4639E-4,.45E-5,0
STARLINK-3595,2022-022AU,2026-02-07T12:50:21.600672,15.08847438,.0001473,53.2170,134.4921,88.5340,271.5821,0,U,51894,999,21875,.14592E-3,.2036E-4,0
STARLINK-3594,2022-022AV,2026-02-07T12:39:46.996128,15.08835660,.0001657,53.2159,134.5261,60.2685,299.8472,0,U,51895,999,21869,.48182E-3,.7388E-4,0
STARLINK-3593,2022-022AW,2026-02-07T13:11:36.436128,15.08840871,.0001155,53.2172,134.6469,80.9920,279.1203,0,U,51896,999,21874,-.18511E-4,-.582E-5,0
STARLINK-3598,2022-022AX,2026-02-07T12:34:28.784928,15.08838108,.0001441,53.2178,134.5394,78.9749,281.1405,0,U,51897,999,21869,.10709E-4,-.118E-5,0
STARLINK-3597,2022-022AY,2026-02-07T14:04:34.181472,15.08850836,.000119,53.2168,134.2575,99.6021,260.5106,0,U,51898,999,21875,.38518E-3,.5849E-4,0
2022-023A,2022-023A,2026-02-07T23:36:48.776832,15.18501743,.0098864,63.4785,349.0952,341.7711,17.9866,0,U,51946,999,21810,.66013936E-3,.15365E-3,0
2022-023B,2022-023B,2026-02-07T23:32:00.669120,15.18579797,.00932183,63.4771,348.4993,346.8754,12.9934,0,U,51947,999,21810,.72758244E-3,.16761E-3,0
2022-023C,2022-023C,2026-02-07T23:41:34.935360,15.18460361,.00962464,63.4874,349.7506,350.1228,9.7989,0,U,51948,999,21810,.66216726E-3,.15289E-3,0
2022-023D,2022-023D,2026-02-07T22:33:41.501952,15.18456783,.01111269,63.4613,350.9368,352.6682,7.2799,0,U,51949,999,21809,.85565981E-3,.20678E-3,0
2022-023E,2022-023E,2026-02-07T22:54:28.897632,13.56264554,.01485378,63.4626,291.1472,348.7713,11.0016,0,U,51950,999,20450,.19786562E-3,.57E-6,0
2022-023F,2022-023F,2026-02-05T14:10:48.910368,15.18159778,.0116588,63.4621,0.7933,343.2193,16.5075,0,U,51951,999,21773,.20852E-2,.5133E-3,0
STARLINK-3700,2022-025A,2026-02-07T15:02:05.005248,15.29353065,.0001377,53.1597,152.9051,73.4208,286.6943,0,U,51956,999,21657,.14715E-4,.69E-6,0
STARLINK-3694,2022-025B,2026-02-07T16:20:41.253792,15.06361183,.00017294,53.0552,170.5863,72.8666,287.2512,0,U,51957,999,21632,.43933833E-3,.6262E-4,0
STARLINK-3692,2022-025C,2026-02-07T14:03:23.774112,15.30197797,.0000979,53.1623,153.3710,79.6515,280.4596,0,U,51958,999,21656,.63656E-4,.1527E-4,0
STARLINK-3704,2022-025D,2026-02-07T16:25:57.618624,15.06403088,.00013863,53.0558,170.5447,55.7307,304.3814,0,U,51959,999,21632,.3914402E-4,.302E-5,0
STARLINK-3691,2022-025E,2026-02-07T16:15:21.010464,15.06400096,.00012423,53.0550,170.5802,89.1526,270.9605,0,U,51960,999,21632,.24462434E-4,.83E-6,0
STARLINK-3697,2022-025G,2026-02-07T15:29:00.220416,15.06401581,.0001708,53.0555,161.3033,110.8037,249.3135,0,U,51962,999,21645,.10135E-3,.1228E-4,0
STARLINK-3675,2022-025H,2026-02-07T13:58:51.892320,15.30199178,.0001701,53.1633,153.4049,80.0946,280.0247,0,U,51963,999,21656,.10129E-3,.2642E-4,0
STARLINK-3690,2022-025J,2026-02-07T14:58:38.237952,15.06382688,.0001189,53.0552,161.9845,78.9005,281.2117,0,U,51964,999,21644,-.23034E-4,-.624E-5,0
STARLINK-3696,2022-025K,2026-02-07T16:10:02.213472,15.06399559,.00013072,53.0546,170.5921,92.8167,267.2972,0,U,51965,999,21632,.2984968E-3,.4167E-4,0
STARLINK-3699,2022-025L,2026-02-07T21:53:01.889088,15.06406707,.00014583,53.0559,164.5069,75.6450,284.4701,0,U,51966,999,21643,.78766037E-4,.892E-5,0
STARLINK-3681,2022-025N,2026-02-07T14:32:04.168320,15.06402182,.0001363,53.0546,161.9845,71.1030,289.0106,0,U,51968,999,21644,.12817E-3,.1628E-4,0
STARLINK-3680,2022-025P,2026-02-07T15:30:26.108064,15.06449259,.0000876,53.0546,162.1018,97.7921,262.3167,0,U,51969,999,21643,.5169E-3,.7436E-4,0
STARLINK-3677,2022-025Q,2026-02-07T13:50:03.138144,15.06398401,.0001363,53.0560,166.0882,92.4433,267.6712,0,U,51970,999,21638,.52305E-4,.498E-5,0
STARLINK-3669,2022-025R,2026-02-07T14:37:21.771264,15.06406242,.0001049,53.0544,161.9168,104.5905,255.5200,0,U,51971,999,21644,.63934E-4,.671E-5,0
STARLINK-3671,2022-025S,2026-02-07T13:34:07.355424,15.06401238,.0000971,53.0543,166.1193,76.5941,283.5156,0,U,51972,999,21638,.46949E-4,.418E-5,0
STARLINK-3679,2022-025T,2026-02-07T15:20:16.132704,15.06391025,.0001259,53.0559,165.7326,100.9111,259.2020,0,U,51973,999,21639,-.81698E-4,-.1498E-4,0
STARLINK-3672,2022-025U,2026-02-07T13:28:48.915264,15.06395497,.0001195,53.0555,166.1308,118.1960,241.9150,0,U,51974,999,21637,.94944E-4,.1133E-4,0
STARLINK-3674,2022-025V,2026-02-07T21:03:25.245792,15.06398121,.00010442,53.0549,160.3148,56.4127,303.6962,0,U,51975,999,21649,.3120818E-3,.437E-4,0
STARLINK-3660,2022-025X,2026-02-07T21:01:49.990656,15.08897186,.00011322,53.2165,152.9634,65.5664,294.5446,0,U,51977,999,21683,.53200188E-3,.8202E-4,0
